{
 "type": "FeatureCollection",
 "features": [
  {
   "type": "Feature",
   "properties": {
    "name": "Study area (simulated)"
   },
   "geometry": {
    "type": "Polygon",
    "coordinates": [
     [
      [
       -76.575,
       3.375
      ],
      [
       -76.495,
       3.365
      ],
      [
       -76.455,
       3.405
      ],
      [
       -76.462,
       3.47
      ],
      [
       -76.5,
       3.51
      ],
      [
       -76.556,
       3.505
      ],
      [
       -76.59,
       3.455
      ],
      [
       -76.588,
       3.405
      ],
      [
       -76.575,
       3.375
      ]
     ]
    ]
   }
  }
 ]
}